{"type":"FeatureCollection","features":[{"type":"Feature","properties":{"ma_xa":"21796","ten_xa":"Vĩnh Thịnh","sap_nhap":"Vĩnh Hiệp, Vĩnh Thịnh","tru_so":"đang cập nhật","loai":"Xã","cap":2,"stt":51,"dtich_km2":133.91,"dan_so":10839,"matdo_km2":80.94,"ma_tinh":"52","ten_tinh":"Gia Lai"},"geometry":{"type":"Polygon","coordinates":[[[108.81527600000004,14.228699000000063],[108.80962900000009,14.228583000000071],[108.81005000000005,14.225551000000053],[108.80733800000007,14.224797000000024],[108.80647800000008,14.223415000000045],[108.80537000000004,14.223051000000055],[108.80508400000008,14.221565000000055],[108.80527400000005,14.220255000000066],[108.80284300000005,14.219213000000025],[108.80192200000005,14.218453000000068],[108.79918700000007,14.21740600000004],[108.79597400000006,14.217750000000024],[108.79443100000009,14.218627000000026],[108.79244900000003,14.217197000000056],[108.79004600000007,14.216896000000077],[108.78794100000005,14.219720000000052],[108.78468600000008,14.22073800000004],[108.78111200000006,14.221060000000023],[108.77832600000005,14.21976200000006],[108.77513300000004,14.220503000000065],[108.77370600000006,14.221569000000045],[108.77255700000006,14.221599000000026],[108.77046000000007,14.22088400000007],[108.77094300000005,14.217346000000077],[108.76994500000006,14.215540000000033],[108.76843100000008,14.214535000000069],[108.76400300000006,14.212821000000076],[108.76306300000005,14.211573000000044],[108.76314100000008,14.210026000000028],[108.76520300000004,14.206948000000068],[108.76553700000005,14.205279000000075],[108.76485600000007,14.203476000000023],[108.76229500000005,14.199240000000032],[108.76007300000003,14.192716000000075],[108.75897300000008,14.188431000000037],[108.75858100000005,14.183039000000065],[108.75946600000009,14.177039000000036],[108.76350100000008,14.166856000000053],[108.76607300000006,14.163535000000024],[108.77183300000007,14.158758000000034],[108.77313100000003,14.155860000000075],[108.77394400000009,14.152126000000067],[108.77573900000004,14.15049700000003],[108.78277900000006,14.147574000000077],[108.79242100000005,14.145013000000063],[108.79345800000004,14.144347000000039],[108.79285200000004,14.141435000000058],[108.79265900000007,14.138021000000037],[108.79186100000004,14.135051000000033],[108.78688100000005,14.128676000000041],[108.78524900000008,14.125767000000053],[108.78584600000005,14.12277000000006],[108.78567100000004,14.118260000000078],[108.78737600000005,14.114776000000063],[108.79037900000009,14.110847000000035],[108.78870200000006,14.105624000000034],[108.78857300000004,14.100459000000058],[108.78784800000005,14.09996700000005],[108.78799400000008,14.098150000000032],[108.78700900000007,14.094723000000045],[108.78657600000008,14.091875000000073],[108.78673100000009,14.09086700000006],[108.78612900000007,14.088191000000052],[108.78623900000008,14.086915000000033],[108.78727500000008,14.085616000000073],[108.78767900000008,14.08223300000003],[108.78740800000008,14.078624000000048],[108.78798600000005,14.076889000000051],[108.78766500000006,14.075020000000052],[108.78801500000009,14.072543000000053],[108.78877800000004,14.071316000000024],[108.78969600000005,14.070672000000059],[108.79164800000007,14.068247000000042],[108.79296000000005,14.067533000000026],[108.79720400000008,14.066136000000029],[108.80075700000003,14.065252000000044],[108.80471600000004,14.065509000000077],[108.80579000000006,14.065919000000065],[108.80829900000003,14.065151000000071],[108.80971700000003,14.06575300000003],[108.81038200000006,14.065353000000073],[108.81075100000004,14.064591000000064],[108.81063700000004,14.064010000000053],[108.80987500000003,14.063200000000052],[108.81021100000004,14.062442000000033],[108.81005700000009,14.061675000000037],[108.81200500000006,14.059955000000059],[108.81236800000005,14.06026600000007],[108.81259700000004,14.061679000000026],[108.81379900000007,14.063106000000062],[108.81449000000003,14.063530000000071],[108.81564800000007,14.063285000000064],[108.81736200000006,14.06456600000007],[108.81965200000008,14.064731000000052],[108.82006700000005,14.064448000000027],[108.82220300000006,14.06425500000006],[108.82479600000005,14.065067000000056],[108.82628200000005,14.06492000000003],[108.82897000000008,14.06596600000006],[108.83050100000008,14.065134000000057],[108.83402700000005,14.066298000000074],[108.83531000000005,14.067156000000068],[108.83574600000009,14.067847000000029],[108.83578200000005,14.068812000000037],[108.83516900000006,14.070528000000024],[108.83658000000008,14.070904000000041],[108.83707400000009,14.072194000000025],[108.83782500000007,14.072613000000047],[108.83926900000006,14.072805000000074],[108.84289300000006,14.071596000000056],[108.84517400000004,14.071937000000048],[108.84560400000004,14.071687000000054],[108.84579600000006,14.070843000000025],[108.84633300000007,14.070325000000025],[108.84584400000006,14.06901300000004],[108.84720800000008,14.06822500000004],[108.84759300000007,14.067519000000061],[108.84847100000007,14.067525000000046],[108.84970600000008,14.06494200000003],[108.85046900000003,14.064513000000034],[108.85287800000003,14.064929000000063],[108.85348900000008,14.064645000000041],[108.85374900000005,14.06407500000006],[108.85367100000008,14.06252900000004],[108.85262800000004,14.061126000000058],[108.85458700000004,14.059955000000059],[108.85550000000006,14.058982000000071],[108.85651600000006,14.058802000000071],[108.85918100000004,14.05726100000004],[108.86172400000004,14.057207000000062],[108.86252100000007,14.056536000000051],[108.86466800000005,14.055835000000059],[108.86546600000008,14.05668600000007],[108.86506800000006,14.05814300000003],[108.86564500000009,14.059954000000062],[108.86550500000004,14.06103900000005],[108.86344300000007,14.061918000000048],[108.86154800000008,14.061474000000032],[108.86088300000006,14.062286000000029],[108.86007600000005,14.06198100000006],[108.85809700000004,14.06266000000005],[108.85718900000006,14.064127000000042],[108.85677600000008,14.067579000000023],[108.85753300000005,14.069744000000071],[108.85864100000003,14.070708000000025],[108.85972500000008,14.070684000000028],[108.86288700000006,14.072545000000048],[108.86423300000007,14.072734000000025],[108.86432700000006,14.073657000000026],[108.86346700000007,14.075932000000023],[108.86410700000005,14.080422000000056],[108.86277500000006,14.081605000000025],[108.86099400000006,14.081134000000077],[108.85960800000004,14.082757000000072],[108.85746900000004,14.083006000000069],[108.85625200000004,14.083847000000048],[108.85299600000008,14.087834000000043],[108.85535600000009,14.08748600000007],[108.85973000000007,14.089112000000057],[108.86047200000007,14.089961000000073],[108.86184500000007,14.090671000000043],[108.86311700000005,14.093091000000072],[108.86164300000007,14.096906000000047],[108.85999000000004,14.099714000000063],[108.86239700000004,14.10239800000005],[108.86214500000006,14.103572000000042],[108.86263700000006,14.104233000000022],[108.86278500000009,14.106131000000062],[108.86332200000004,14.106821000000025],[108.86326500000007,14.107837000000075],[108.86270900000005,14.10917500000005],[108.86193000000009,14.109941000000049],[108.86177900000007,14.111284000000069],[108.85994600000004,14.11255600000004],[108.85982000000007,14.113253000000043],[108.85846300000009,14.115343000000053],[108.85825500000004,14.116731000000073],[108.85941700000006,14.117811000000074],[108.86227400000007,14.119140000000073],[108.86210200000005,14.121009000000072],[108.86247800000007,14.121483000000069],[108.86611200000004,14.122110000000077],[108.86700600000006,14.122764000000075],[108.86715500000008,14.123674000000051],[108.86804200000006,14.12370500000003],[108.86848700000007,14.124705000000063],[108.86830200000009,14.125474000000054],[108.86867300000006,14.126070000000027],[108.86985600000008,14.126547000000073],[108.87176500000004,14.126424000000043],[108.87234900000004,14.127380000000073],[108.87312700000007,14.127550000000042],[108.87393600000007,14.128203000000042],[108.87431300000009,14.129150000000038],[108.87532500000009,14.130237000000022],[108.87505100000004,14.135346000000027],[108.87355800000006,14.136791000000073],[108.87183000000005,14.137009000000035],[108.86980600000004,14.136641000000054],[108.86953800000003,14.137940000000071],[108.86843300000004,14.140321000000029],[108.86923000000007,14.141746000000069],[108.86901700000004,14.142743000000053],[108.86822900000004,14.142862000000036],[108.86688000000004,14.144096000000047],[108.86634100000003,14.144243000000074],[108.86554100000006,14.143707000000063],[108.86499300000008,14.14436100000006],[108.86328200000008,14.145290000000045],[108.86156300000005,14.143027000000075],[108.86061400000006,14.143047000000024],[108.85829000000007,14.144147000000032],[108.85707400000007,14.145864000000074],[108.85701800000004,14.148608000000024],[108.85612800000007,14.15002000000004],[108.85312700000009,14.151417000000038],[108.85225300000008,14.152921000000049],[108.85056100000008,14.153188000000057],[108.84972100000005,14.15442900000005],[108.84782500000006,14.15437600000007],[108.84519200000005,14.15674800000005],[108.84364900000008,14.156999000000042],[108.84325100000007,14.157611000000031],[108.84097900000006,14.159215000000074],[108.84073500000005,14.160116000000073],[108.83918900000003,14.161829000000068],[108.83828700000004,14.162318000000027],[108.83847500000007,14.163655000000063],[108.83803400000005,14.164540000000045],[108.83811700000007,14.165079000000048],[108.83992000000006,14.167130000000043],[108.83913600000005,14.17167500000005],[108.84019500000005,14.172089000000028],[108.84059100000007,14.17294000000004],[108.83996000000008,14.175653000000068],[108.84054200000008,14.17654600000003],[108.84064500000005,14.177384000000075],[108.84213600000004,14.17862400000007],[108.84225600000008,14.179278000000068],[108.84069700000003,14.181121000000076],[108.84036800000007,14.182796000000053],[108.83885200000009,14.182168000000047],[108.83803000000006,14.180949000000055],[108.83724500000005,14.180822000000035],[108.83640100000008,14.180227000000059],[108.83576900000008,14.181208000000026],[108.83356900000007,14.182588000000067],[108.83320300000008,14.184952000000067],[108.83160700000008,14.184937000000048],[108.82901400000009,14.18671500000005],[108.82945600000005,14.188514000000055],[108.82916800000004,14.18974600000007],[108.82766600000008,14.190287000000069],[108.82554700000009,14.191821000000061],[108.82357000000007,14.194267000000025],[108.82361900000006,14.19480500000003],[108.82509400000004,14.195302000000027],[108.82508700000005,14.196329000000048],[108.82560100000006,14.197643000000028],[108.82553600000006,14.198370000000068],[108.82501400000007,14.198935000000063],[108.82513700000004,14.199438000000043],[108.82648900000004,14.200010000000077],[108.82908500000008,14.200473000000045],[108.82924800000006,14.201580000000035],[108.82863400000008,14.20343900000006],[108.82630400000005,14.205033000000071],[108.82534100000004,14.20770200000004],[108.82470300000006,14.208199000000036],[108.82485000000008,14.211380000000077],[108.82605400000006,14.212916000000064],[108.82368700000006,14.217846000000065],[108.82282500000008,14.219377000000065],[108.82072300000004,14.220792000000074],[108.81941600000005,14.222823000000062],[108.81790800000005,14.223959000000036],[108.81705900000009,14.224112000000048],[108.81634800000006,14.224730000000022],[108.81583600000005,14.225815000000068],[108.81474800000007,14.226326000000029],[108.81527600000004,14.228699000000063]]]}}]}